[{"OBJECT_NAME":"ONEWEB-0335","OBJECT_ID":"2021-083R","EPOCH":"2025-12-11T01:15:44.849952","MEAN_MOTION":13.13470405,"ECCENTRICITY":0.00016656,"INCLINATION":87.897,"RA_OF_ASC_NODE":357.6361,"ARG_OF_PERICENTER":98.0667,"MEAN_ANOMALY":262.0651,"EPHEMERIS_TYPE":0,"CLASSIFICATION_TYPE":"U","NORAD_CAT_ID":49201,"ELEMENT_SET_NO":999,"REV_AT_EPOCH":20622,"BSTAR":-0.00024745326,"MEAN_MOTION_DOT":-7.8e-7,"MEAN_MOTION_DDOT":0},{"OBJECT_NAME":"ONEWEB-0336","OBJECT_ID":"2021-083S","EPOCH":"2025-12-11T02:24:00.280800","MEAN_MOTION":13.1347163,"ECCENTRICITY":0.00015337,"INCLINATION":87.8974,"RA_OF_ASC_NODE":357.6229,"ARG_OF_PERICENTER":104.8955,"MEAN_ANOMALY":255.2344,"EPHEMERIS_TYPE":0,"CLASSIFICATION_TYPE":"U","NORAD_CAT_ID":49202,"ELEMENT_SET_NO":999,"REV_AT_EPOCH":20622,"BSTAR":0.00083749931,"MEAN_MOTION_DOT":3.19e-6,"MEAN_MOTION_DDOT":0},{"OBJECT_NAME":"ONEWEB-0337","OBJECT_ID":"2021-083T","EPOCH":"2025-12-11T02:38:25.840320","MEAN_MOTION":13.13470943,"ECCENTRICITY":0.00015291,"INCLINATION":87.8978,"RA_OF_ASC_NODE":357.6324,"ARG_OF_PERICENTER":93.3271,"MEAN_ANOMALY":266.8033,"EPHEMERIS_TYPE":0,"CLASSIFICATION_TYPE":"U","NORAD_CAT_ID":49203,"ELEMENT_SET_NO":999,"REV_AT_EPOCH":20622,"BSTAR":0.00098397706,"MEAN_MOTION_DOT":3.72e-6,"MEAN_MOTION_DDOT":0},{"OBJECT_NAME":"ONEWEB-0338","OBJECT_ID":"2021-083U","EPOCH":"2025-12-11T03:57:09.417312","MEAN_MOTION":13.20772392,"ECCENTRICITY":0.00020373,"INCLINATION":87.9195,"RA_OF_ASC_NODE":311.9611,"ARG_OF_PERICENTER":77.1225,"MEAN_ANOMALY":283.0136,"EPHEMERIS_TYPE":0,"CLASSIFICATION_TYPE":"U","NORAD_CAT_ID":49204,"ELEMENT_SET_NO":999,"REV_AT_EPOCH":21199,"BSTAR":4.9505262e-5,"MEAN_MOTION_DOT":3.3e-7,"MEAN_MOTION_DDOT":0},{"OBJECT_NAME":"ONEWEB-0339","OBJECT_ID":"2021-083V","EPOCH":"2025-12-11T06:30:12.654720","MEAN_MOTION":13.13471343,"ECCENTRICITY":0.0001713,"INCLINATION":87.8982,"RA_OF_ASC_NODE":357.5826,"ARG_OF_PERICENTER":86.7165,"MEAN_ANOMALY":273.416,"EPHEMERIS_TYPE":0,"CLASSIFICATION_TYPE":"U","NORAD_CAT_ID":49205,"ELEMENT_SET_NO":999,"REV_AT_EPOCH":20622,"BSTAR":0.00078657812,"MEAN_MOTION_DOT":3.0e-6,"MEAN_MOTION_DDOT":0},{"OBJECT_NAME":"ONEWEB-0340","OBJECT_ID":"2021-083W","EPOCH":"2025-12-11T02:41:31.325568","MEAN_MOTION":13.18686755,"ECCENTRICITY":0.00017762,"INCLINATION":87.9183,"RA_OF_ASC_NODE":12.8047,"ARG_OF_PERICENTER":96.9691,"MEAN_ANOMALY":263.1644,"EPHEMERIS_TYPE":0,"CLASSIFICATION_TYPE":"U","NORAD_CAT_ID":49206,"ELEMENT_SET_NO":999,"REV_AT_EPOCH":20518,"BSTAR":-8.0159401e-5,"MEAN_MOTION_DOT":-1.9e-7,"MEAN_MOTION_DDOT":0},{"OBJECT_NAME":"ONEWEB-0341","OBJECT_ID":"2021-083X","EPOCH":"2025-12-11T02:51:01.155168","MEAN_MOTION":13.18686117,"ECCENTRICITY":0.00012988,"INCLINATION":87.9185,"RA_OF_ASC_NODE":12.8148,"ARG_OF_PERICENTER":88.6128,"MEAN_ANOMALY":271.5153,"EPHEMERIS_TYPE":0,"CLASSIFICATION_TYPE":"U","NORAD_CAT_ID":49207,"ELEMENT_SET_NO":999,"REV_AT_EPOCH":20520,"BSTAR":-6.0469268e-5,"MEAN_MOTION_DOT":-1.1e-7,"MEAN_MOTION_DDOT":0},{"OBJECT_NAME":"ONEWEB-0342","OBJECT_ID":"2021-083Y","EPOCH":"2025-12-10T20:49:53.073696","MEAN_MOTION":13.20770524,"ECCENTRICITY":0.0001891,"INCLINATION":87.9201,"RA_OF_ASC_NODE":311.9914,"ARG_OF_PERICENTER":79.1787,"MEAN_ANOMALY":280.9559,"EPHEMERIS_TYPE":0,"CLASSIFICATION_TYPE":"U","NORAD_CAT_ID":49208,"ELEMENT_SET_NO":999,"REV_AT_EPOCH":21192,"BSTAR":0.00026548,"MEAN_MOTION_DOT":1.21e-6,"MEAN_MOTION_DDOT":0},{"OBJECT_NAME":"ONEWEB-0343","OBJECT_ID":"2021-083Z","EPOCH":"2025-12-11T03:02:53.422080","MEAN_MOTION":13.18685264,"ECCENTRICITY":0.00015269,"INCLINATION":87.9185,"RA_OF_ASC_NODE":12.8056,"ARG_OF_PERICENTER":77.1073,"MEAN_ANOMALY":283.023,"EPHEMERIS_TYPE":0,"CLASSIFICATION_TYPE":"U","NORAD_CAT_ID":49209,"ELEMENT_SET_NO":999,"REV_AT_EPOCH":20525,"BSTAR":1.0426136e-5,"MEAN_MOTION_DOT":1.7e-7,"MEAN_MOTION_DDOT":0},{"OBJECT_NAME":"ONEWEB-0344","OBJECT_ID":"2021-083AA","EPOCH":"2025-12-11T06:22:54.146208","MEAN_MOTION":13.13470758,"ECCENTRICITY":0.00013431,"INCLINATION":87.8973,"RA_OF_ASC_NODE":357.6156,"ARG_OF_PERICENTER":90.4392,"MEAN_ANOMALY":269.6891,"EPHEMERIS_TYPE":0,"CLASSIFICATION_TYPE":"U","NORAD_CAT_ID":49210,"ELEMENT_SET_NO":999,"REV_AT_EPOCH":20622,"BSTAR":0.00079937382,"MEAN_MOTION_DOT":3.05e-6,"MEAN_MOTION_DDOT":0},{"OBJECT_NAME":"ONEWEB-0345","OBJECT_ID":"2021-083AB","EPOCH":"2025-12-11T00:41:37.392864","MEAN_MOTION":13.13472086,"ECCENTRICITY":0.00013948,"INCLINATION":87.8978,"RA_OF_ASC_NODE":357.6223,"ARG_OF_PERICENTER":87.1231,"MEAN_ANOMALY":273.0058,"EPHEMERIS_TYPE":0,"CLASSIFICATION_TYPE":"U","NORAD_CAT_ID":49211,"ELEMENT_SET_NO":999,"REV_AT_EPOCH":20620,"BSTAR":0.0011240715,"MEAN_MOTION_DOT":4.23e-6,"MEAN_MOTION_DDOT":0},{"OBJECT_NAME":"ONEWEB-0346","OBJECT_ID":"2021-083AC","EPOCH":"2025-12-11T02:58:07.795776","MEAN_MOTION":13.18687369,"ECCENTRICITY":0.00019197,"INCLINATION":87.9177,"RA_OF_ASC_NODE":12.8215,"ARG_OF_PERICENTER":114.884,"MEAN_ANOMALY":245.2492,"EPHEMERIS_TYPE":0,"CLASSIFICATION_TYPE":"U","NORAD_CAT_ID":49212,"ELEMENT_SET_NO":999,"REV_AT_EPOCH":20519,"BSTAR":3.1219956e-5,"MEAN_MOTION_DOT":2.5e-7,"MEAN_MOTION_DDOT":0},{"OBJECT_NAME":"ONEWEB-0348","OBJECT_ID":"2021-083AD","EPOCH":"2025-12-11T03:52:36.350976","MEAN_MOTION":13.2077068,"ECCENTRICITY":0.00013383,"INCLINATION":87.9191,"RA_OF_ASC_NODE":311.9385,"ARG_OF_PERICENTER":95.2706,"MEAN_ANOMALY":264.858,"EPHEMERIS_TYPE":0,"CLASSIFICATION_TYPE":"U","NORAD_CAT_ID":49213,"ELEMENT_SET_NO":999,"REV_AT_EPOCH":21199,"BSTAR":0.00014858898,"MEAN_MOTION_DOT":7.3e-7,"MEAN_MOTION_DDOT":0},{"OBJECT_NAME":"ONEWEB-0350","OBJECT_ID":"2021-083AE","EPOCH":"2025-12-11T06:24:07.407360","MEAN_MOTION":13.13470586,"ECCENTRICITY":0.00014069,"INCLINATION":87.8983,"RA_OF_ASC_NODE":357.5725,"ARG_OF_PERICENTER":92.8625,"MEAN_ANOMALY":267.2665,"EPHEMERIS_TYPE":0,"CLASSIFICATION_TYPE":"U","NORAD_CAT_ID":49214,"ELEMENT_SET_NO":999,"REV_AT_EPOCH":20626,"BSTAR":0.00081874508,"MEAN_MOTION_DOT":3.12e-6,"MEAN_MOTION_DDOT":0},{"OBJECT_NAME":"ONEWEB-0351","OBJECT_ID":"2021-083AF","EPOCH":"2025-12-10T14:59:40.191072","MEAN_MOTION":13.2077486,"ECCENTRICITY":0.0002175,"INCLINATION":87.9201,"RA_OF_ASC_NODE":312.042,"ARG_OF_PERICENTER":59.726,"MEAN_ANOMALY":300.4088,"EPHEMERIS_TYPE":0,"CLASSIFICATION_TYPE":"U","NORAD_CAT_ID":49215,"ELEMENT_SET_NO":999,"REV_AT_EPOCH":21188,"BSTAR":0.00038288,"MEAN_MOTION_DOT":1.69e-6,"MEAN_MOTION_DDOT":0},{"OBJECT_NAME":"ONEWEB-0352","OBJECT_ID":"2021-083AG","EPOCH":"2025-12-11T00:27:00.217728","MEAN_MOTION":13.134713,"ECCENTRICITY":0.00018431,"INCLINATION":87.8968,"RA_OF_ASC_NODE":357.6447,"ARG_OF_PERICENTER":78.5919,"MEAN_ANOMALY":281.5417,"EPHEMERIS_TYPE":0,"CLASSIFICATION_TYPE":"U","NORAD_CAT_ID":49216,"ELEMENT_SET_NO":999,"REV_AT_EPOCH":20632,"BSTAR":0.00045966145,"MEAN_MOTION_DOT":1.81e-6,"MEAN_MOTION_DDOT":0},{"OBJECT_NAME":"ONEWEB-0354","OBJECT_ID":"2021-083AH","EPOCH":"2025-12-11T04:19:51.970368","MEAN_MOTION":13.20769845,"ECCENTRICITY":0.00015353,"INCLINATION":87.9202,"RA_OF_ASC_NODE":311.9302,"ARG_OF_PERICENTER":84.7054,"MEAN_ANOMALY":275.4255,"EPHEMERIS_TYPE":0,"CLASSIFICATION_TYPE":"U","NORAD_CAT_ID":49217,"ELEMENT_SET_NO":999,"REV_AT_EPOCH":21199,"BSTAR":0.00012448104,"MEAN_MOTION_DOT":6.4e-7,"MEAN_MOTION_DDOT":0},{"OBJECT_NAME":"ONEWEB-0355","OBJECT_ID":"2021-083AJ","EPOCH":"2025-12-11T01:08:38.283648","MEAN_MOTION":13.13470793,"ECCENTRICITY":0.00016178,"INCLINATION":87.8972,"RA_OF_ASC_NODE":357.652,"ARG_OF_PERICENTER":85.2208,"MEAN_ANOMALY":274.9106,"EPHEMERIS_TYPE":0,"CLASSIFICATION_TYPE":"U","NORAD_CAT_ID":49218,"ELEMENT_SET_NO":999,"REV_AT_EPOCH":20620,"BSTAR":0.0001217493,"MEAN_MOTION_DOT":5.7e-7,"MEAN_MOTION_DDOT":0},{"OBJECT_NAME":"ONEWEB-0357","OBJECT_ID":"2021-083AK","EPOCH":"2025-12-11T04:15:18.546336","MEAN_MOTION":13.20771118,"ECCENTRICITY":0.00017794,"INCLINATION":87.9199,"RA_OF_ASC_NODE":311.9271,"ARG_OF_PERICENTER":78.1219,"MEAN_ANOMALY":282.0114,"EPHEMERIS_TYPE":0,"CLASSIFICATION_TYPE":"U","NORAD_CAT_ID":49219,"ELEMENT_SET_NO":999,"REV_AT_EPOCH":21199,"BSTAR":-0.0006119366,"MEAN_MOTION_DOT":-2.36e-6,"MEAN_MOTION_DDOT":0},{"OBJECT_NAME":"ONEWEB-0332","OBJECT_ID":"2021-090A","EPOCH":"2025-12-10T16:11:50.295552","MEAN_MOTION":13.14503302,"ECCENTRICITY":0.00020058,"INCLINATION":87.8979,"RA_OF_ASC_NODE":327.2746,"ARG_OF_PERICENTER":83.2988,"MEAN_ANOMALY":276.837,"EPHEMERIS_TYPE":0,"CLASSIFICATION_TYPE":"U","NORAD_CAT_ID":49279,"ELEMENT_SET_NO":999,"REV_AT_EPOCH":20281,"BSTAR":-0.00032008792,"MEAN_MOTION_DOT":-1.06e-6,"MEAN_MOTION_DDOT":0},{"OBJECT_NAME":"ONEWEB-0347","OBJECT_ID":"2021-090B","EPOCH":"2025-12-11T04:01:41.557440","MEAN_MOTION":13.20773347,"ECCENTRICITY":0.00021355,"INCLINATION":87.9194,"RA_OF_ASC_NODE":311.9397,"ARG_OF_PERICENTER":84.8702,"MEAN_ANOMALY":275.2675,"EPHEMERIS_TYPE":0,"CLASSIFICATION_TYPE":"U","NORAD_CAT_ID":49280,"ELEMENT_SET_NO":999,"REV_AT_EPOCH":20622,"BSTAR":3.6718342e-5,"MEAN_MOTION_DOT":2.8e-7,"MEAN_MOTION_DDOT":0},{"OBJECT_NAME":"ONEWEB-0349","OBJECT_ID":"2021-090C","EPOCH":"2025-12-11T06:36:13.480128","MEAN_MOTION":13.20769402,"ECCENTRICITY":0.00018035,"INCLINATION":87.9192,"RA_OF_ASC_NODE":311.9167,"ARG_OF_PERICENTER":81.1047,"MEAN_ANOMALY":279.029,"EPHEMERIS_TYPE":0,"CLASSIFICATION_TYPE":"U","NORAD_CAT_ID":49281,"ELEMENT_SET_NO":999,"REV_AT_EPOCH":20502,"BSTAR":0.00010332998,"MEAN_MOTION_DOT":5.5e-7,"MEAN_MOTION_DDOT":0},{"OBJECT_NAME":"ONEWEB-0353","OBJECT_ID":"2021-090D","EPOCH":"2025-12-11T04:47:40.205760","MEAN_MOTION":13.14504301,"ECCENTRICITY":0.00020434,"INCLINATION":87.8993,"RA_OF_ASC_NODE":327.1552,"ARG_OF_PERICENTER":84.166,"MEAN_ANOMALY":275.9703,"EPHEMERIS_TYPE":0,"CLASSIFICATION_TYPE":"U","NORAD_CAT_ID":49282,"ELEMENT_SET_NO":999,"REV_AT_EPOCH":20288,"BSTAR":-0.0001545754,"MEAN_MOTION_DOT":-4.5e-7,"MEAN_MOTION_DDOT":0}]
